[{"OBJECT_NAME":"KUIPER-00030","OBJECT_ID":"2025-088V","EPOCH":"2026-03-09T12:13:07.778784","MEAN_MOTION":14.79975354,"ECCENTRICITY":0.00108768,"INCLINATION":51.9,"RA_OF_ASC_NODE":111.3437,"ARG_OF_PERICENTER":69.9838,"MEAN_ANOMALY":290.2294,"EPHEMERIS_TYPE":0,"CLASSIFICATION_TYPE":"U","NORAD_CAT_ID":63743,"ELEMENT_SET_NO":999,"REV_AT_EPOCH":4760,"BSTAR":0.00066192233,"MEAN_MOTION_DOT":4.835e-5,"MEAN_MOTION_DDOT":0},{"OBJECT_NAME":"DELFI-N3XT","OBJECT_ID":"2013-066N","EPOCH":"2026-03-09T17:56:16.820160","MEAN_MOTION":14.93675177,"ECCENTRICITY":0.00763289,"INCLINATION":97.8341,"RA_OF_ASC_NODE":349.2574,"ARG_OF_PERICENTER":176.1438,"MEAN_ANOMALY":184.0386,"EPHEMERIS_TYPE":0,"CLASSIFICATION_TYPE":"U","NORAD_CAT_ID":39428,"ELEMENT_SET_NO":999,"REV_AT_EPOCH":65977,"BSTAR":0.00065912071,"MEAN_MOTION_DOT":7.321e-5,"MEAN_MOTION_DDOT":0}]
